STARLINK-34193          
1 64011U 25101T   25238.38904133  .00020024  00000+0  73479-3 0  9992
2 64011  43.0010  21.1622 0000837 258.0976 101.9782 15.27598793 17182
STARLINK-34078          
1 64012U 25101U   25238.67613804  .00022727  00000+0  83256-3 0  9993
2 64012  43.0003  19.0094 0000753 279.3460  80.7307 15.27591664 17238
STARLINK-34182          
1 64013U 25101V   25238.65363587  .00031944  00000+0  11640-2 0  9990
2 64013  43.0033  16.2451 0000769 289.0667  71.0101 15.27617371 17264
STARLINK-34192          
1 64014U 25101W   25238.65957712  .00030041  00000+0  10956-2 0  9996
2 64014  43.0051  19.7530 0001152 289.0602  71.0125 15.27616296 17224
STARLINK-34093          
1 64015U 25101X   25239.07487839  .00025484  00000+0  93195-3 0  9994
2 64015  42.9992  16.8397 0002022 288.7580  71.3052 15.27594303 17297
STARLINK-34016          
1 64016U 25101Y   25239.06973040  .00029585  00000+0  10793-2 0  9996
2 64016  43.0020  16.7998 0002495 273.1097  86.9469 15.27609463 17291
STARLINK-34161          
1 64017U 25101Z   25239.07873108  .00023021  00000+0  84322-3 0  9991
2 64017  42.9995  16.8704 0002052 279.2065  80.8555 15.27589133 17298
STARLINK-34162          
1 64018U 25101AA  25239.09158008  .00025786  00000+0  94292-3 0  9996
2 64018  43.0060  16.9714 0001563 279.1859  80.8815 15.27592657 17296
STARLINK-34155          
1 64019U 25101AB  25239.09928871  .00039096  00000+0  14205-2 0  9994
2 64019  43.0065  17.0292 0002368 269.9373  90.1207 15.27629929 17299
STARLINK-34141          
1 64020U 25101AC  25239.09543017  .00030582  00000+0  11150-2 0  9998
2 64020  43.0041  16.9999 0003048 275.4100  84.6404 15.27613358 17299
STARLINK-34062          
1 64021U 25101AD  25239.07358267  .00023410  00000+0  85657-3 0  9994
2 64021  42.9982  16.8289 0001185 260.5333  99.5385 15.27616220 17290
STARLINK-34051          
1 64022U 25102A   25239.02744791  .00005257  00000+0  44788-3 0  9991
2 64022  70.0011 245.2646 0004314 263.9523  96.1145 14.98344053 16796
STARLINK-34184          
1 64023U 25102B   25238.97721252  .00004086  00000+0  34991-3 0  9996
2 64023  70.0009 245.4881 0004418 265.7047  94.3607 14.98342335 16797
STARLINK-34087          
1 64024U 25102C   25239.01058231  .00002172  00000+0  18970-3 0  9996
2 64024  70.0015 245.2009 0003884 266.8587  93.2127 14.98335976 16688
STARLINK-34088          
1 64025U 25102D   25238.98571802  .00005373  00000+0  45753-3 0  9991
2 64025  70.0010 245.5134 0004307 266.8605  93.2061 14.98349429 16795
STARLINK-33992          
1 64026U 25102E   25238.99393445  .00008498  00000+0  71908-3 0  9990
2 64026  69.9994 245.5452 0002987 280.4020  79.6802 14.98334828 16879
