[{"OBJECT_NAME":"STARLINK-34193","OBJECT_ID":"2025-101T","EPOCH":"2025-08-26T09:20:13.170912","MEAN_MOTION":15.27598793,"ECCENTRICITY":8.376e-5,"INCLINATION":43.001,"RA_OF_ASC_NODE":21.1622,"ARG_OF_PERICENTER":258.0976,"MEAN_ANOMALY":101.9782,"EPHEMERIS_TYPE":0,"CLASSIFICATION_TYPE":"U","NORAD_CAT_ID":64011,"ELEMENT_SET_NO":999,"REV_AT_EPOCH":1718,"BSTAR":0.00073478873,"MEAN_MOTION_DOT":0.00020024,"MEAN_MOTION_DDOT":0},{"OBJECT_NAME":"STARLINK-34078","OBJECT_ID":"2025-101U","EPOCH":"2025-08-26T16:13:38.326656","MEAN_MOTION":15.27591664,"ECCENTRICITY":7.537e-5,"INCLINATION":43.0003,"RA_OF_ASC_NODE":19.0094,"ARG_OF_PERICENTER":279.346,"MEAN_ANOMALY":80.7307,"EPHEMERIS_TYPE":0,"CLASSIFICATION_TYPE":"U","NORAD_CAT_ID":64012,"ELEMENT_SET_NO":999,"REV_AT_EPOCH":1723,"BSTAR":0.00083255586,"MEAN_MOTION_DOT":0.00022727,"MEAN_MOTION_DDOT":0},{"OBJECT_NAME":"STARLINK-34182","OBJECT_ID":"2025-101V","EPOCH":"2025-08-26T15:41:14.139168","MEAN_MOTION":15.27617371,"ECCENTRICITY":7.696e-5,"INCLINATION":43.0033,"RA_OF_ASC_NODE":16.2451,"ARG_OF_PERICENTER":289.0667,"MEAN_ANOMALY":71.0101,"EPHEMERIS_TYPE":0,"CLASSIFICATION_TYPE":"U","NORAD_CAT_ID":64013,"ELEMENT_SET_NO":999,"REV_AT_EPOCH":1726,"BSTAR":0.0011639928,"MEAN_MOTION_DOT":0.00031944,"MEAN_MOTION_DDOT":0},{"OBJECT_NAME":"STARLINK-34192","OBJECT_ID":"2025-101W","EPOCH":"2025-08-26T15:49:47.463168","MEAN_MOTION":15.27616296,"ECCENTRICITY":0.00011524,"INCLINATION":43.0051,"RA_OF_ASC_NODE":19.753,"ARG_OF_PERICENTER":289.0602,"MEAN_ANOMALY":71.0125,"EPHEMERIS_TYPE":0,"CLASSIFICATION_TYPE":"U","NORAD_CAT_ID":64014,"ELEMENT_SET_NO":999,"REV_AT_EPOCH":1722,"BSTAR":0.0010955531,"MEAN_MOTION_DOT":0.00030041,"MEAN_MOTION_DDOT":0},{"OBJECT_NAME":"STARLINK-34093","OBJECT_ID":"2025-101X","EPOCH":"2025-08-27T01:47:49.492896","MEAN_MOTION":15.27594303,"ECCENTRICITY":0.00020228,"INCLINATION":42.9992,"RA_OF_ASC_NODE":16.8397,"ARG_OF_PERICENTER":288.758,"MEAN_ANOMALY":71.3052,"EPHEMERIS_TYPE":0,"CLASSIFICATION_TYPE":"U","NORAD_CAT_ID":64015,"ELEMENT_SET_NO":999,"REV_AT_EPOCH":1729,"BSTAR":0.00093195273,"MEAN_MOTION_DOT":0.00025484,"MEAN_MOTION_DDOT":0},{"OBJECT_NAME":"STARLINK-34016","OBJECT_ID":"2025-101Y","EPOCH":"2025-08-27T01:40:24.706560","MEAN_MOTION":15.27609463,"ECCENTRICITY":0.00024953,"INCLINATION":43.002,"RA_OF_ASC_NODE":16.7998,"ARG_OF_PERICENTER":273.1097,"MEAN_ANOMALY":86.9469,"EPHEMERIS_TYPE":0,"CLASSIFICATION_TYPE":"U","NORAD_CAT_ID":64016,"ELEMENT_SET_NO":999,"REV_AT_EPOCH":1729,"BSTAR":0.0010793165,"MEAN_MOTION_DOT":0.00029585,"MEAN_MOTION_DDOT":0},{"OBJECT_NAME":"STARLINK-34161","OBJECT_ID":"2025-101Z","EPOCH":"2025-08-27T01:53:22.365312","MEAN_MOTION":15.27589133,"ECCENTRICITY":0.00020522,"INCLINATION":42.9995,"RA_OF_ASC_NODE":16.8704,"ARG_OF_PERICENTER":279.2065,"MEAN_ANOMALY":80.8555,"EPHEMERIS_TYPE":0,"CLASSIFICATION_TYPE":"U","NORAD_CAT_ID":64017,"ELEMENT_SET_NO":999,"REV_AT_EPOCH":1729,"BSTAR":0.00084322338,"MEAN_MOTION_DOT":0.00023021,"MEAN_MOTION_DDOT":0},{"OBJECT_NAME":"STARLINK-34162","OBJECT_ID":"2025-101AA","EPOCH":"2025-08-27T02:11:52.518912","MEAN_MOTION":15.27592657,"ECCENTRICITY":0.0001563,"INCLINATION":43.006,"RA_OF_ASC_NODE":16.9714,"ARG_OF_PERICENTER":279.1859,"MEAN_ANOMALY":80.8815,"EPHEMERIS_TYPE":0,"CLASSIFICATION_TYPE":"U","NORAD_CAT_ID":64018,"ELEMENT_SET_NO":999,"REV_AT_EPOCH":1729,"BSTAR":0.00094291729,"MEAN_MOTION_DOT":0.00025786,"MEAN_MOTION_DDOT":0},{"OBJECT_NAME":"STARLINK-34155","OBJECT_ID":"2025-101AB","EPOCH":"2025-08-27T02:22:58.544544","MEAN_MOTION":15.27629929,"ECCENTRICITY":0.00023686,"INCLINATION":43.0065,"RA_OF_ASC_NODE":17.0292,"ARG_OF_PERICENTER":269.9373,"MEAN_ANOMALY":90.1207,"EPHEMERIS_TYPE":0,"CLASSIFICATION_TYPE":"U","NORAD_CAT_ID":64019,"ELEMENT_SET_NO":999,"REV_AT_EPOCH":1729,"BSTAR":0.0014205082,"MEAN_MOTION_DOT":0.00039096,"MEAN_MOTION_DDOT":0},{"OBJECT_NAME":"STARLINK-34141","OBJECT_ID":"2025-101AC","EPOCH":"2025-08-27T02:17:25.166688","MEAN_MOTION":15.27613358,"ECCENTRICITY":0.00030485,"INCLINATION":43.0041,"RA_OF_ASC_NODE":16.9999,"ARG_OF_PERICENTER":275.41,"MEAN_ANOMALY":84.6404,"EPHEMERIS_TYPE":0,"CLASSIFICATION_TYPE":"U","NORAD_CAT_ID":64020,"ELEMENT_SET_NO":999,"REV_AT_EPOCH":1729,"BSTAR":0.0011150369,"MEAN_MOTION_DOT":0.00030582,"MEAN_MOTION_DDOT":0},{"OBJECT_NAME":"STARLINK-34062","OBJECT_ID":"2025-101AD","EPOCH":"2025-08-27T01:45:57.542688","MEAN_MOTION":15.2761622,"ECCENTRICITY":0.00011859,"INCLINATION":42.9982,"RA_OF_ASC_NODE":16.8289,"ARG_OF_PERICENTER":260.5333,"MEAN_ANOMALY":99.5385,"EPHEMERIS_TYPE":0,"CLASSIFICATION_TYPE":"U","NORAD_CAT_ID":64021,"ELEMENT_SET_NO":999,"REV_AT_EPOCH":1729,"BSTAR":0.00085657181,"MEAN_MOTION_DOT":0.0002341,"MEAN_MOTION_DDOT":0},{"OBJECT_NAME":"STARLINK-34051","OBJECT_ID":"2025-102A","EPOCH":"2025-08-27T00:39:31.499424","MEAN_MOTION":14.98344053,"ECCENTRICITY":0.00043146,"INCLINATION":70.0011,"RA_OF_ASC_NODE":245.2646,"ARG_OF_PERICENTER":263.9523,"MEAN_ANOMALY":96.1145,"EPHEMERIS_TYPE":0,"CLASSIFICATION_TYPE":"U","NORAD_CAT_ID":64022,"ELEMENT_SET_NO":999,"REV_AT_EPOCH":1679,"BSTAR":0.00044787819,"MEAN_MOTION_DOT":5.257e-5,"MEAN_MOTION_DDOT":0},{"OBJECT_NAME":"STARLINK-34184","OBJECT_ID":"2025-102B","EPOCH":"2025-08-26T23:27:11.161728","MEAN_MOTION":14.98342335,"ECCENTRICITY":0.00044188,"INCLINATION":70.0009,"RA_OF_ASC_NODE":245.4881,"ARG_OF_PERICENTER":265.7047,"MEAN_ANOMALY":94.3607,"EPHEMERIS_TYPE":0,"CLASSIFICATION_TYPE":"U","NORAD_CAT_ID":64023,"ELEMENT_SET_NO":999,"REV_AT_EPOCH":1679,"BSTAR":0.00034990646,"MEAN_MOTION_DOT":4.086e-5,"MEAN_MOTION_DDOT":0},{"OBJECT_NAME":"STARLINK-34087","OBJECT_ID":"2025-102C","EPOCH":"2025-08-27T00:15:14.311584","MEAN_MOTION":14.98335976,"ECCENTRICITY":0.0003884,"INCLINATION":70.0015,"RA_OF_ASC_NODE":245.2009,"ARG_OF_PERICENTER":266.8587,"MEAN_ANOMALY":93.2127,"EPHEMERIS_TYPE":0,"CLASSIFICATION_TYPE":"U","NORAD_CAT_ID":64024,"ELEMENT_SET_NO":999,"REV_AT_EPOCH":1668,"BSTAR":0.00018969965,"MEAN_MOTION_DOT":2.172e-5,"MEAN_MOTION_DDOT":0},{"OBJECT_NAME":"STARLINK-34088","OBJECT_ID":"2025-102D","EPOCH":"2025-08-26T23:39:26.036928","MEAN_MOTION":14.98349429,"ECCENTRICITY":0.00043079,"INCLINATION":70.001,"RA_OF_ASC_NODE":245.5134,"ARG_OF_PERICENTER":266.8605,"MEAN_ANOMALY":93.2061,"EPHEMERIS_TYPE":0,"CLASSIFICATION_TYPE":"U","NORAD_CAT_ID":64025,"ELEMENT_SET_NO":999,"REV_AT_EPOCH":1679,"BSTAR":0.00045752886,"MEAN_MOTION_DOT":5.373e-5,"MEAN_MOTION_DDOT":0},{"OBJECT_NAME":"STARLINK-33992","OBJECT_ID":"2025-102E","EPOCH":"2025-08-26T23:51:15.936480","MEAN_MOTION":14.98334828,"ECCENTRICITY":0.00029879,"INCLINATION":69.9994,"RA_OF_ASC_NODE":245.5452,"ARG_OF_PERICENTER":280.402,"MEAN_ANOMALY":79.6802,"EPHEMERIS_TYPE":0,"CLASSIFICATION_TYPE":"U","NORAD_CAT_ID":64026,"ELEMENT_SET_NO":999,"REV_AT_EPOCH":1687,"BSTAR":0.00071907533,"MEAN_MOTION_DOT":8.498e-5,"MEAN_MOTION_DDOT":0}]
